[{"OBJECT_NAME":"SITRO-AIS-62","OBJECT_ID":"2025-313BA","EPOCH":"2026-03-09T22:28:04.503072","MEAN_MOTION":15.2313984,"ECCENTRICITY":0.00083903,"INCLINATION":97.4013,"RA_OF_ASC_NODE":145.3565,"ARG_OF_PERICENTER":355.0929,"MEAN_ANOMALY":5.0224,"EPHEMERIS_TYPE":0,"CLASSIFICATION_TYPE":"U","NORAD_CAT_ID":67296,"ELEMENT_SET_NO":999,"REV_AT_EPOCH":1086,"BSTAR":0.00055522855,"MEAN_MOTION_DOT":0.00013063,"MEAN_MOTION_DDOT":0},{"OBJECT_NAME":"COSMOS 2251 DEB","OBJECT_ID":"1993-036BK","EPOCH":"2026-03-09T19:57:45.204480","MEAN_MOTION":15.2250442,"ECCENTRICITY":0.00171058,"INCLINATION":74.0815,"RA_OF_ASC_NODE":344.9963,"ARG_OF_PERICENTER":285.2465,"MEAN_ANOMALY":74.6843,"EPHEMERIS_TYPE":0,"CLASSIFICATION_TYPE":"U","NORAD_CAT_ID":33818,"ELEMENT_SET_NO":999,"REV_AT_EPOCH":91183,"BSTAR":0.0028725842,"MEAN_MOTION_DOT":0.00067433,"MEAN_MOTION_DDOT":0}]
